0 DELTA 1 DEB
1 21677U 75052JD  13282.85161047  .00000259  00000-0  91744-3 0  2076
2 21677 099.9140 236.8043 0479090 070.9398 345.6437 12.70858834 39615
0 DELTA 1 DEB
1 21677U 75052JD  13285.38472853  .00000241  00000-0  86219-3 0  2080
2 21677 099.9146 239.0031 0479108 065.5071 054.8856 12.70860522 39937
0 DELTA 1 DEB
1 21677U 75052JD  13287.43141237  .00000246  00000-0  87871-3 0  2098
2 21677 099.9152 240.7791 0479133 061.1099 058.6649 12.70861691 40196
0 DELTA 1 DEB
1 21677U 75052JD  13289.85783094  .00000262  00000-0  92999-3 0  2106
2 21677 099.9159 242.8849 0479137 055.9036 359.7730 12.70863009 40502
0 DELTA 1 DEB
1 21677U 75052JD  13292.39074137  .00000290  00000-0  10171-2 0  2113
2 21677 099.9162 245.0837 0479164 050.4713 068.1047 12.70864377 40826
0 DELTA 1 DEB
1 21677U 75052JD  13294.43787782  .00000310  00000-0  10814-2 0  2125
2 21677 099.9164 246.8609 0479162 046.0792 073.9798 12.70865662 41084
